OBJECT_NAME,OBJECT_ID,EPOCH,MEAN_MOTION,ECCENTRICITY,INCLINATION,RA_OF_ASC_NODE,ARG_OF_PERICENTER,MEAN_ANOMALY,EPHEMERIS_TYPE,CLASSIFICATION_TYPE,NORAD_CAT_ID,ELEMENT_SET_NO,REV_AT_EPOCH,BSTAR,MEAN_MOTION_DOT,MEAN_MOTION_DDOT
STARLINK-37076,2026-050G,2026-06-03T12:37:53.166720,15.34421875,.00029141,53.1592,227.4429,150.3748,209.7420,0,U,68173,999,1383,.68694235E-3,.22921E-3,0
STARLINK-37078,2026-050H,2026-06-03T20:14:46.328928,15.34428362,.00023853,53.1558,225.8703,46.0228,314.0971,0,U,68174,999,1388,.15081203E-3,.4726E-4,0
STARLINK-36886,2026-050J,2026-06-04T17:16:23.761344,15.34409000,.0001348,53.1577,221.3794,72.7621,287.3529,0,U,68175,999,1402,.81571195E-3,.27292E-3,0
STARLINK-36905,2026-050K,2026-06-03T12:22:45.390432,15.34400895,.00010483,53.1581,227.3735,83.8266,276.2856,0,U,68176,999,1383,.76296668E-3,.2549E-3,0
STARLINK-36668,2026-050L,2026-06-03T11:43:21.889056,15.34400959,.0001315,53.1583,227.2246,123.5459,236.5669,0,U,68177,999,1383,.36332E-3,.11919E-3,0
STARLINK-36677,2026-050M,2026-06-04T17:40:38.183520,15.34418706,.00031981,53.1563,221.4790,20.7903,339.3230,0,U,68178,999,1402,.69880048E-3,.23323E-3,0
STARLINK-37052,2026-050N,2026-06-04T13:18:53.871552,15.38850324,.0002113,53.1560,222.4987,33.5961,326.5177,0,U,68179,999,1399,.69431677E-3,.26779E-3,0
STARLINK-37035,2026-050P,2026-06-03T20:06:09.876384,15.38825975,.00012486,53.1567,225.8350,82.6094,277.5052,0,U,68180,999,1388,-.28052938E-3,-.11312E-3,0
STARLINK-37032,2026-050Q,2026-06-05T04:00:03.000096,15.34377040,.0001309,53.1582,219.6167,77.9777,69.7389,0,U,68181,999,580,.19142E-2,.6481E-3,0
STARLINK-37082,2026-050R,2026-06-03T12:19:43.584096,15.34392556,.00010506,53.1598,227.3708,130.1119,229.9976,0,U,68182,999,1383,.59253695E-3,.19691E-3,0
STARLINK-37102,2026-050S,2026-06-03T13:54:49.505760,15.38853459,.0001123,53.1570,227.0704,112.9757,247.1366,0,U,68183,999,1384,.75159E-3,.29032E-3,0
STARLINK-36964,2026-050T,2026-06-05T04:00:03.000096,15.34373189,.0001132,53.1576,219.5687,89.4567,81.5371,0,U,68184,999,583,.19894E-2,.67387E-3,0
STARLINK-37061,2026-050U,2026-06-04T18:31:59.636064,15.34429782,.0001004,53.1587,220.9976,146.1264,213.9803,0,U,68185,999,1403,.60327E-3,.2008E-3,0
STARLINK-37079,2026-050V,2026-06-04T15:41:34.464768,15.35436416,.0001663,53.1570,221.7004,174.4514,185.6507,0,U,68186,999,1401,.14220133E-2,.49607E-3,0
STARLINK-37006,2026-050W,2026-06-03T12:34:53.080608,15.34375924,.00009198,53.1584,227.4311,125.2987,234.8102,0,U,68187,999,1383,.43033758E-3,.1418E-3,0
STARLINK-36305,2026-050Y,2026-06-03T17:25:21.062208,15.34421717,.00023745,53.1597,226.5542,33.5972,326.5181,0,U,68189,999,1376,.73409253E-3,.24525E-3,0
STARLINK-37071,2026-050Z,2026-06-03T11:07:08.965344,15.34407159,.00038939,53.1576,227.7547,14.0851,346.0259,0,U,68190,999,1382,.91952045E-3,.30831E-3,0
STARLINK-37091,2026-050AA,2026-06-04T19:23:31.461792,15.34414348,.000187,53.1564,221.2143,51.8597,308.2574,0,U,68191,999,1403,.622E-3,.20707E-3,0
STARLINK-37098,2026-050AB,2026-06-04T19:11:24.075744,15.34426063,.0001301,53.1568,221.1639,83.7293,276.3858,0,U,68192,999,1403,.7442E-3,.24872E-3,0
STARLINK-37090,2026-050AC,2026-06-03T12:13:39.727776,15.34391440,.00011606,53.1574,227.3325,115.1404,244.9720,0,U,68193,999,1383,.92851877E-3,.31117E-3,0
STARLINK-37093,2026-050AD,2026-06-03T12:01:32.397024,15.34388337,.00013078,53.1573,227.2807,107.8739,252.2406,0,U,68194,999,1383,.99294295E-3,.33309E-3,0
STARLINK-37058,2026-050AE,2026-06-03T11:28:12.776160,15.34435615,.00011559,53.1581,227.1268,147.5542,212.5532,0,U,68195,999,1227,.78519532E-3,.26276E-3,0
STARLINK-36986,2026-053A,2026-06-04T05:05:03.392448,15.33452060,.00021679,97.2851,30.4523,109.6077,250.5400,0,U,68207,999,1347,.67068584E-3,.21645E-3,0
STARLINK-37009,2026-053B,2026-06-04T15:58:54.596352,15.33466314,.00022334,97.2875,30.9136,113.1949,246.9529,0,U,68208,999,1354,.39207234E-3,.12613E-3,0
STARLINK-36948,2026-053C,2026-06-04T04:57:13.692672,15.33451581,.0001989,97.2853,30.4588,107.7779,252.3681,0,U,68209,999,1345,.81269513E-3,.26259E-3,0
STARLINK-37119,2026-053D,2026-06-04T15:51:04.889664,15.33457327,.00025695,97.2861,30.9160,117.0096,243.1410,0,U,68210,999,1354,.55236453E-3,.17808E-3,0
STARLINK-37120,2026-053E,2026-06-04T15:47:09.933504,15.33462322,.00022724,97.2833,30.9202,104.5497,255.5998,0,U,68211,999,1352,.5378616E-3,.17339E-3,0
STARLINK-37117,2026-053F,2026-06-04T15:43:15.178656,15.33452506,.00025781,97.2849,30.9222,99.5173,260.6361,0,U,68212,999,1354,.73863144E-3,.23853E-3,0
STARLINK-37116,2026-053G,2026-06-04T15:39:20.268288,15.33462769,.00026217,97.2858,30.9269,111.0652,249.0872,0,U,68213,999,1354,.70894211E-3,.22896E-3,0
STARLINK-35854,2026-053H,2026-06-04T05:32:27.791808,15.33450319,.00017503,97.2852,30.5714,102.0421,258.1018,0,U,68214,999,1346,.60084479E-3,.19376E-3,0
STARLINK-36272,2026-053J,2026-06-04T15:31:30.498528,15.33460660,.00031668,97.2844,30.9305,111.2801,248.8780,0,U,68215,999,1352,.7644636E-3,.24701E-3,0
STARLINK-37014,2026-053K,2026-06-04T20:09:29.407680,15.33445733,.0001479,97.2842,31.1322,111.6387,248.5013,0,U,68216,999,1357,.36251E-3,.11646E-3,0
STARLINK-37011,2026-053L,2026-06-04T04:25:54.291360,15.33451119,.00020942,97.2832,30.4916,94.6021,265.5461,0,U,68217,999,1347,.88329569E-3,.28556E-3,0
STARLINK-37108,2026-053M,2026-06-04T04:21:59.390496,15.33447410,.00021746,97.2876,30.4900,109.0253,251.1225,0,U,68218,999,1347,.79427704E-3,.25657E-3,0
STARLINK-37106,2026-053N,2026-06-04T05:52:02.580384,15.33442996,.00019485,97.2858,30.5608,93.5484,266.5981,0,U,68219,999,1348,.55012475E-3,.17726E-3,0
STARLINK-37030,2026-053P,2026-06-04T05:44:12.665472,15.33448315,.00019817,97.2867,30.5636,106.2681,253.8779,0,U,68220,999,1348,.71877138E-3,.23204E-3,0
STARLINK-37012,2026-053Q,2026-06-04T08:56:03.459264,15.33459419,.00022446,97.2875,30.6923,115.7258,244.4217,0,U,68221,999,1350,.83274994E-3,.26919E-3,0
STARLINK-37110,2026-053R,2026-06-05T02:01:52.705056,15.33449975,.0001586,97.2850,31.4102,100.2655,259.8766,0,U,68222,999,1361,.90144E-3,.29144E-3,0
STARLINK-37025,2026-053S,2026-06-04T05:36:22.901760,15.33452685,.00015392,97.2858,30.5754,107.0589,253.0822,0,U,68223,999,1348,.81912483E-3,.26469E-3,0
STARLINK-36960,2026-053U,2026-06-04T05:28:33.013632,15.33446324,.00015785,97.2855,30.5833,102.0991,258.0429,0,U,68225,999,1346,.61932859E-3,.19973E-3,0
STARLINK-37038,2026-053V,2026-06-04T05:20:42.916416,15.33451257,.00012427,97.2850,30.5919,112.1371,248.0004,0,U,68226,999,1346,.64530577E-3,.20819E-3,0
STARLINK-37083,2026-053W,2026-06-04T05:24:38.148192,15.33451878,.00014437,97.2855,30.5870,90.0706,270.0702,0,U,68227,999,1345,.77962819E-3,.25184E-3,0
STARLINK-37050,2026-053X,2026-06-04T05:16:48.145152,15.33450341,.00011759,97.2852,30.5954,75.0312,285.1060,0,U,68228,999,1346,.62339342E-3,.20107E-3,0
STARLINK-37081,2026-053Y,2026-06-04T18:55:57.186048,15.49197396,.0001869,97.2836,33.9437,103.4340,256.7120,0,U,68229,999,1375,.11086E-2,.60687E-3,0
STARLINK-37100,2026-053Z,2026-06-04T14:36:41.643648,15.33451769,.0002801,97.2837,30.9869,110.7400,249.4143,0,U,68230,999,1354,.67282887E-3,.21715E-3,0
STARLINK-37104,2026-053AA,2026-06-04T05:08:58.412544,15.33451189,.00014057,97.2849,30.6022,88.9720,271.1683,0,U,68231,999,1348,.77036282E-3,.24882E-3,0
STARLINK-37027,2026-054A,2026-06-05T04:00:03.000096,15.34321832,.0001381,53.1591,243.4696,92.8006,271.8591,0,U,68232,999,594,.21543E-2,.72937E-3,0
STARLINK-37132,2026-054B,2026-06-04T13:50:49.528032,15.49393119,.00005131,53.1579,247.6780,37.4278,322.6767,0,U,68233,999,1237,.16437267E-2,.9233E-3,0
STARLINK-37101,2026-054C,2026-06-05T00:00:02.000160,15.49273350,.0001174,53.1581,248.3974,81.3517,191.3094,0,U,68234,999,593,.5269E-3,.28927E-3,0
STARLINK-36963,2026-054D,2026-06-05T00:00:02.000160,15.34395622,.0001266,53.1574,244.5985,99.8748,249.0647,0,U,68235,999,591,.4159E-3,.13699E-3,0
STARLINK-37127,2026-054E,2026-06-05T04:00:03.000096,15.49241259,.0001459,53.1587,247.3525,85.2372,161.3036,0,U,68236,999,589,.1836E-2,.102771E-2,0
STARLINK-37095,2026-054F,2026-06-03T12:02:35.138112,15.34366646,.0001242,53.1577,251.5779,72.0524,288.0614,0,U,68237,999,1222,.84775E-3,.28344E-3,0
STARLINK-37097,2026-054G,2026-06-03T20:40:35.247648,15.35405043,.00022739,53.1611,249.5538,42.7167,317.4013,0,U,68238,999,1228,.83190207E-3,.28754E-3,0
STARLINK-37096,2026-054H,2026-06-04T10:52:24.247488,15.35414141,.00018253,53.1596,246.8495,60.3470,299.7715,0,U,68239,999,1237,.71513081E-3,.24657E-3,0
STARLINK-37092,2026-054J,2026-06-05T04:00:03.000096,15.49241242,.000146,53.1588,247.1404,92.8196,256.8219,0,U,68240,999,589,.1867E-2,.104537E-2,0
STARLINK-37094,2026-054K,2026-06-03T14:32:12.081696,15.30191277,.00011727,53.1591,258.0057,62.5202,297.5918,0,U,68241,999,1214,.64058015E-3,.18656E-3,0
STARLINK-36356,2026-054L,2026-06-03T12:29:16.377216,15.30206179,.00011531,53.1566,258.1908,110.4789,249.6335,0,U,68242,999,1213,.61557145E-3,.1792E-3,0
STARLINK-36345,2026-054M,2026-06-03T14:09:35.899776,15.34400187,.00009851,53.1585,250.7024,69.2199,290.8909,0,U,68243,999,1224,.1039737E-2,.34917E-3,0
STARLINK-36310,2026-054N,2026-06-05T04:00:03.000096,15.49244162,.0001183,53.1582,246.9216,88.5527,5.3321,0,U,68244,999,585,.17815E-2,.99676E-3,0
STARLINK-36247,2026-054P,2026-06-04T21:00:35.183808,15.49391137,.0001394,53.1565,246.7000,47.7382,312.3745,0,U,68245,999,1241,.11629E-2,.64954E-3,0
STARLINK-37043,2026-054Q,2026-06-05T00:00:02.000160,15.49266793,.0001469,53.1586,247.8892,75.7114,85.2711,0,U,68246,999,587,.6574E-3,.36229E-3,0
STARLINK-37044,2026-054R,2026-06-04T14:30:44.125632,15.49366540,.00005026,53.1577,247.8562,64.4576,295.6485,0,U,68247,999,1237,.10187829E-2,.5674E-3,0
STARLINK-36997,2026-054S,2026-06-03T14:21:33.211584,15.30209537,.00010998,53.1600,257.9627,90.0520,270.0607,0,U,68248,999,1214,.8546995E-3,.25047E-3,0
STARLINK-37141,2026-054T,2026-06-04T14:40:13.606176,15.49372058,.00012411,53.1564,247.9192,110.7114,249.4029,0,U,68249,999,1237,.98596844E-3,.54896E-3,0
